NORAD_CAT_ID,OBJECT_NAME,OBJECT_TYPE,EPOCH,MEAN_MOTION,ECCENTRICITY,INCLINATION,RA_OF_ASC_NODE,ARG_OF_PERICENTER,MEAN_ANOMALY,BSTAR,MEAN_MOTION_DOT,MEAN_MOTION_DDOT,TLE_LINE0,TLE_LINE1,TLE_LINE2,SEMIMAJOR_AXIS,PERIOD,APOGEE,PERIGEE,DECAYED
51144.0,STARLINK-3185,PAYLOAD,2024-07-16 21:48:56,15.0884876,0.0001694,53.2183,116.1337,105.0398,255.0781,4.8111e-05,4.78e-06,0.0,0 STARLINK-3185,1 51144U 22005AS  24198.90898786  .00000478  00000-0  48111-4 0  9991,2 51144  53.2183 116.1337 0001694 105.0398 255.0781 15.08848760138048,6917.854,95.437,540.89,538.547,0.0
51144.0,STARLINK-3185,PAYLOAD,2024-07-17 00:59:41,15.08861575,0.0001415,53.2168,115.548,100.2551,259.8601,0.00018803,2.708e-05,0.0,0 STARLINK-3185,1 51144U 22005AS  24199.04145650  .00002708  00000-0  18803-3 0  9994,2 51144  53.2168 115.5480 0001415 100.2551 259.8601 15.08861575138066,6917.814,95.436,540.658,538.701,0.0
51144.0,STARLINK-3185,PAYLOAD,2024-07-17 21:39:44,15.08838577,0.0001567,53.2161,111.6707,124.8709,235.2431,4.7729e-06,-2.12e-06,0.0,0 STARLINK-3185,1 51144U 22005AS  24199.90259422 -.00000212  00000-0  47729-5 0  9992,2 51144  53.2161 111.6707 0001567 124.8709 235.2431 15.08838577138192,6917.885,95.438,540.834,538.666,0.0
51144.0,STARLINK-3185,PAYLOAD,2024-07-18 04:01:16,15.0883978,0.0001637,53.2161,110.4878,115.2011,244.9151,5.8861e-06,-1.94e-06,0.0,0 STARLINK-3185,1 51144U 22005AS  24200.16755516 -.00000194  00000-0  58861-5 0  9996,2 51144  53.2161 110.4878 0001637 115.2011 244.9151 15.08839780139347,6917.881,95.438,540.879,538.614,0.0
51144.0,STARLINK-3185,PAYLOAD,2024-07-18 21:30:31,15.08841462,0.000127,53.2163,107.2163,110.4692,249.6436,-0.00010944,-2.029e-05,0.0,0 STARLINK-3185,1 51144U 22005AS  24200.89620010 -.00002029  00000-0 -10944-3 0  9994,2 51144  53.2163 107.2163 0001270 110.4692 249.6436 15.08841462138342,6917.876,95.437,540.619,538.862,0.0
51144.0,STARLINK-3185,PAYLOAD,2024-07-19 03:52:02,15.08856491,0.0001236,53.2162,106.031,109.3963,250.7163,2.8761e-05,1.7e-06,0.0,0 STARLINK-3185,1 51144U 22005AS  24201.16114536  .00000170  00000-0  28761-4 0  9996,2 51144  53.2162 106.0310 0001236 109.3963 250.7163 15.08856491139497,6917.83,95.437,540.55,538.84,0.0
51144.0,STARLINK-3185,PAYLOAD,2024-07-19 10:13:37,15.088389,0.0002592,53.2167,104.8409,52.7937,307.3291,-6.7521e-06,-3.96e-06,0.0,0 STARLINK-3185,1 51144U 22005AS  24201.42612340 -.00000396  00000-0 -67521-5 0  9991,2 51144  53.2167 104.8409 0002592  52.7937 307.3291 15.08838900139536,6917.884,95.438,541.542,537.956,0.0
51144.0,STARLINK-3185,PAYLOAD,2024-07-19 21:21:19,15.08827672,0.0001322,53.2164,102.7576,105.9594,254.1543,3.8427e-05,3.24e-06,0.0,0 STARLINK-3185,1 51144U 22005AS  24201.88980758  .00000324  00000-0  38427-4 0  9993,2 51144  53.2164 102.7576 0001322 105.9594 254.1543 15.08827672139606,6917.918,95.438,540.698,538.869,0.0
51144.0,STARLINK-3185,PAYLOAD,2024-07-19 22:56:42,15.08828771,0.0001344,53.2167,102.4602,103.4816,256.6326,4.4897e-05,4.27e-06,0.0,0 STARLINK-3185,1 51144U 22005AS  24201.95604703  .00000427  00000-0  44897-4 0  9996,2 51144  53.2167 102.4602 0001344 103.4816 256.6326 15.08828771138505,6917.915,95.438,540.709,538.85,0.0
51144.0,STARLINK-3185,PAYLOAD,2024-07-20 10:04:23,15.08840108,0.0001297,53.217,100.3854,109.495,250.6182,9.0133e-05,1.147e-05,0.0,0 STARLINK-3185,1 51144U 22005AS  24202.41972122  .00001147  00000-0  90133-4 0  9995,2 51144  53.2170 100.3854 0001297 109.4950 250.6182 15.08840108139689,6917.88,95.438,540.642,538.848,0.0
51144.0,STARLINK-3185,PAYLOAD,2024-07-20 22:47:29,15.08841187,0.0001407,53.2175,98.0067,114.5401,245.5738,3.3986e-05,2.53e-06,0.0,0 STARLINK-3185,1 51144U 22005AS  24202.94964506  .00000253  00000-0  33986-4 0  9990,2 51144  53.2175  98.0067 0001407 114.5401 245.5738 15.08841187138658,6917.877,95.437,540.715,538.768,0.0
51144.0,STARLINK-3185,PAYLOAD,2024-07-21 01:58:14,15.08854137,9.89e-05,53.2161,97.4063,86.2395,273.8711,0.00010116,1.323e-05,0.0,0 STARLINK-3185,1 51144U 22005AS  24203.08211464  .00001323  00000-0  10116-3 0  9992,2 51144  53.2161  97.4063 0000989  86.2395 273.8711 15.08854137139782,6917.837,95.437,540.386,539.018,0.0
51144.0,STARLINK-3185,PAYLOAD,2024-07-21 21:02:54,15.08830655,0.0001579,53.2163,93.843,86.3224,273.7949,6.5547e-05,7.55e-06,0.0,0 STARLINK-3185,1 51144U 22005AS  24203.87701611  .00000755  00000-0  65547-4 0  9994,2 51144  53.2163  93.8430 0001579  86.3224 273.7949 15.08830655139905,6917.909,95.438,540.866,538.682,0.0
51144.0,STARLINK-3185,PAYLOAD,2024-07-21 22:38:17,15.08837072,0.0001259,53.2168,93.5415,71.261,288.8519,4.2851e-06,-2.2e-06,0.0,0 STARLINK-3185,1 51144U 22005AS  24203.94325342 -.00000220  00000-0  42851-5 0  9997,2 51144  53.2168  93.5415 0001259  71.2610 288.8519 15.08837072138805,6917.889,95.438,540.625,538.883,0.0
51144.0,STARLINK-3185,PAYLOAD,2024-07-22 01:49:02,15.08842446,0.0001416,53.2179,92.9432,68.9934,291.121,0.00012212,1.656e-05,0.0,0 STARLINK-3185,1 51144U 22005AS  24204.07572779  .00001656  00000-0  12212-3 0  9999,2 51144  53.2179  92.9432 0001416  68.9934 291.1210 15.08842446139937,6917.873,95.437,540.717,538.758,0.0
51144.0,STARLINK-3185,PAYLOAD,2024-07-22 22:29:05,15.08827124,0.0001201,53.2163,89.0803,87.0994,273.0135,-0.00013129,-2.376e-05,0.0,0 STARLINK-3185,1 51144U 22005AS  24204.93686977 -.00002376  00000-0 -13129-3 0  9990,2 51144  53.2163  89.0803 0001201  87.0994 273.0135 15.08827124138951,6917.92,95.438,540.616,538.954,0.0
51144.0,STARLINK-3185,PAYLOAD,2024-07-23 09:36:46,15.08848144,0.0001189,53.2163,86.9987,82.0103,278.1024,7.544e-05,9.13e-06,0.0,0 STARLINK-3185,1 51144U 22005AS  24205.40053346  .00000913  00000-0  75440-4 0  9999,2 51144  53.2163  86.9987 0001189  82.0103 278.1024 15.08848144140133,6917.855,95.437,540.543,538.898,0.0
51144.0,STARLINK-3185,PAYLOAD,2024-07-23 22:19:50,15.08860111,0.000125,53.2161,84.6165,105.2407,254.8723,0.00022723,3.332e-05,0.0,0 STARLINK-3185,1 51144U 22005AS  24205.93044256  .00003332  00000-0  22723-3 0  9990,2 51144  53.2161  84.6165 0001250 105.2407 254.8723 15.08860111139108,6917.819,95.436,540.549,538.819,0.0
51144.0,STARLINK-3185,PAYLOAD,2024-07-24 22:10:37,15.08864391,0.0001777,53.2154,80.1666,60.2243,299.8926,0.00015853,2.237e-05,0.0,0 STARLINK-3185,1 51144U 22005AS  24206.92404203  .00002237  00000-0  15853-3 0  9991,2 51144  53.2154  80.1666 0001777  60.2243 299.8926 15.08864391139253,6917.806,95.436,540.9,538.442,0.0
51144.0,STARLINK-3185,PAYLOAD,2024-07-25 01:21:22,15.08866696,0.0001366,53.2181,79.5555,111.8353,248.2785,0.00015099,2.118e-05,0.0,0 STARLINK-3185,1 51144U 22005AS  24207.05651330  .00002118  00000-0  15099-3 0  9991,2 51144  53.2181  79.5555 0001366 111.8353 248.2785 15.08866696140388,6917.799,95.436,540.609,538.719,0.0
51144.0,STARLINK-3185,PAYLOAD,2024-07-25 22:01:25,15.08832808,0.0001238,53.2157,75.7031,92.4128,267.7006,-3.1825e-05,-7.94e-06,0.0,0 STARLINK-3185,1 51144U 22005AS  24207.91765644 -.00000794  00000-0 -31825-4 0  9996,2 51144  53.2157  75.7031 0001238  92.4128 267.7006 15.08832808139401,6917.902,95.438,540.624,538.911,0.0
51144.0,STARLINK-3185,PAYLOAD,2024-07-26 21:52:10,15.08860355,0.0001132,53.2161,71.2379,91.7504,268.3618,-0.00010255,-1.92e-05,0.0,0 STARLINK-3185,1 51144U 22005AS  24208.91123367 -.00001920  00000-0 -10255-3 0  9992,2 51144  53.2161  71.2379 0001132  91.7504 268.3618 15.08860355140669,6917.818,95.436,540.466,538.9,0.0
51144.0,STARLINK-3185,PAYLOAD,2024-07-27 15:21:26,15.08831281,0.0001258,53.2175,67.9676,108.7051,251.4078,6.8221e-05,7.98e-06,0.0,0 STARLINK-3185,1 51144U 22005AS  24209.63989126  .00000798  00000-0  68221-4 0  9992,2 51144  53.2175  67.9676 0001258 108.7051 251.4078 15.08831281139668,6917.907,95.438,540.642,538.902,0.0
51144.0,STARLINK-3185,PAYLOAD,2024-07-28 19:58:25,15.08753807,0.0002196,53.2172,62.6168,102.7458,257.378,0.0012289,0.00019278,0.0,0 STARLINK-3185,1 51144U 22005AS  24210.83223785  .00019278  00000-0  12289-2 0  9992,2 51144  53.2172  62.6168 0002196 102.7458 257.3780 15.08753807140956,6918.144,95.443,541.528,538.49,0.0
51144.0,STARLINK-3185,PAYLOAD,2024-07-28 21:33:45,15.08849055,0.0001047,53.2162,62.3159,103.2629,256.848,-1.9607e-05,-6e-06,0.0,0 STARLINK-3185,1 51144U 22005AS  24210.89844848 -.00000600  00000-0 -19607-4 0  9991,2 51144  53.2162  62.3159 0001047 103.2629 256.8480 15.08849055139851,6917.853,95.437,540.442,538.993,0.0
51144.0,STARLINK-3185,PAYLOAD,2024-07-28 23:09:08,15.08859212,0.0001124,53.217,62.0221,107.5472,252.5643,-0.00012835,-2.331e-05,0.0,0 STARLINK-3185,1 51144U 22005AS  24210.96468380 -.00002331  00000-0 -12835-3 0  9990,2 51144  53.2170  62.0221 0001124 107.5472 252.5643 15.08859212140971,6917.822,95.436,540.464,538.909,0.0
51144.0,STARLINK-3185,PAYLOAD,2024-07-29 07:06:04,15.08845211,0.0001082,53.2163,60.5351,93.3545,266.7571,8.412e-05,1.051e-05,0.0,0 STARLINK-3185,1 51144U 22005AS  24211.29588900  .00001051  00000-0  84120-4 0  9991,2 51144  53.2163  60.5351 0001082  93.3545 266.7571 15.08845211141024,6917.864,95.437,540.478,538.981,0.0
51144.0,STARLINK-3185,PAYLOAD,2024-07-29 19:49:10,15.0882294,0.0001344,53.2183,58.1531,79.3336,280.7807,0.00046484,7.114e-05,0.0,0 STARLINK-3185,1 51144U 22005AS  24211.82581772  .00007114  00000-0  46484-3 0  9996,2 51144  53.2183  58.1531 0001344  79.3336 280.7807 15.08822940141103,6917.933,95.439,540.727,538.868,0.0
51144.0,STARLINK-3185,PAYLOAD,2024-07-29 21:24:34,15.08816098,0.0001438,53.2172,57.8574,82.2624,277.8531,0.00062482,9.664e-05,0.0,0 STARLINK-3185,1 51144U 22005AS  24211.89206078  .00009664  00000-0  62482-3 0  9994,2 51144  53.2172  57.8574 0001438  82.2624 277.8531 15.08816098140007,6917.953,95.439,540.813,538.824,0.0
51144.0,STARLINK-3185,PAYLOAD,2024-07-29 22:59:57,15.08804606,0.0001382,53.2169,57.5611,71.3999,288.7143,0.00092299,0.00014418,0.0,0 STARLINK-3185,1 51144U 22005AS  24211.95830592  .00014418  00000-0  92299-3 0  9997,2 51144  53.2169  57.5611 0001382  71.3999 288.7143 15.08804606141120,6917.989,95.44,540.81,538.898,0.0
